KINEIS-5E               
1 62083U 24219C   26116.86669244  .00000692  00000+0  11708-3 0  9994
2 62083  97.8948 277.2807 0007743  75.8519 284.3549 14.72322189 76215
KINEIS-5A               
1 62084U 24219D   26116.83364179  .00000939  00000+0  15625-3 0  9997
2 62084  97.9289 277.5083 0007225  89.1158 271.0878 14.72288593 76214
KINEIS-5B               
1 62085U 24219E   26116.87583155  .00001343  00000+0  19237-3 0  9992
2 62085  98.0017 281.0260 0003279  86.1908 273.9677 14.78218558 76429
KINEIS-2C               
1 62929U 25028B   26116.70497269  .00001344  00000+0  21727-3 0  9998
2 62929  98.0489 171.2888 0002365 115.6509 244.4944 14.72957967 65038
KINEIS-2D               
1 62930U 25028C   26116.71994865  .00001812  00000+0  27347-3 0  9999
2 62930  97.9325 170.1535 0003645  36.5476 323.5981 14.75518347 65128
KINEIS-2E               
1 62931U 25028D   26116.60039477  .00001555  00000+0  22846-3 0  9990
2 62931  97.8994 169.3274 0001367  79.5730 280.5635 14.76865043 65160
KINEIS-2A               
1 62932U 25028E   26116.74100003  .00001445  00000+0  23704-3 0  9992
2 62932  98.1189 172.0595 0001800 326.0738  34.0353 14.72226586 65032
KINEIS-2B               
1 62934U 25028G   26116.72842611  .00001412  00000+0  22617-3 0  9996
2 62934  97.9707 170.5192 0002477 339.1539  20.9568 14.73250944 65081
KINEIS-4E               
1 63300U 25056A   26116.59952271  .00001292  00000+0  21167-3 0  9999
2 63300  97.9189 241.9194 0000643  71.0099 289.1179 14.72373088 59538
KINEIS-4C               
1 63301U 25056B   26116.47537944  .00000253  00000+0  47614-4 0  9995
2 63301  97.9234 241.9971 0004512 112.0424 248.1263 14.72372411 59527
KINEIS-4D               
1 63302U 25056C   26116.61618766  .00000525  00000+0  90707-4 0  9997
2 63302  97.9337 242.1288 0003632 116.7642 243.3937 14.72342253 59549
KINEIS-4A               
1 63303U 25056D   26116.58167912  .00004193  00000+0  67148-3 0  9993
2 63303  97.9232 242.0116 0003131 101.1526 259.0034 14.72260260 59534
KINEIS-4B               
1 63304U 25056E   26114.93368483  .00000015  00000+0  10088-4 0  9998
2 63304  97.9285 240.4487 0006846  96.2822 263.9165 14.72278046 59287
