[{"OBJECT_NAME":"KINEIS-5E","OBJECT_ID":"2024-219C","EPOCH":"2026-04-26T20:48:02.226816","MEAN_MOTION":14.72322189,"ECCENTRICITY":0.0007743,"INCLINATION":97.8948,"RA_OF_ASC_NODE":277.2807,"ARG_OF_PERICENTER":75.8519,"MEAN_ANOMALY":284.3549,"EPHEMERIS_TYPE":0,"CLASSIFICATION_TYPE":"U","NORAD_CAT_ID":62083,"ELEMENT_SET_NO":999,"REV_AT_EPOCH":7621,"BSTAR":0.00011708,"MEAN_MOTION_DOT":6.92e-6,"MEAN_MOTION_DDOT":0},{"OBJECT_NAME":"KINEIS-5A","OBJECT_ID":"2024-219D","EPOCH":"2026-04-26T20:00:26.650656","MEAN_MOTION":14.72288593,"ECCENTRICITY":0.0007225,"INCLINATION":97.9289,"RA_OF_ASC_NODE":277.5083,"ARG_OF_PERICENTER":89.1158,"MEAN_ANOMALY":271.0878,"EPHEMERIS_TYPE":0,"CLASSIFICATION_TYPE":"U","NORAD_CAT_ID":62084,"ELEMENT_SET_NO":999,"REV_AT_EPOCH":7621,"BSTAR":0.00015625,"MEAN_MOTION_DOT":9.39e-6,"MEAN_MOTION_DDOT":0},{"OBJECT_NAME":"KINEIS-5B","OBJECT_ID":"2024-219E","EPOCH":"2026-04-26T21:01:11.845920","MEAN_MOTION":14.78218558,"ECCENTRICITY":0.0003279,"INCLINATION":98.0017,"RA_OF_ASC_NODE":281.026,"ARG_OF_PERICENTER":86.1908,"MEAN_ANOMALY":273.9677,"EPHEMERIS_TYPE":0,"CLASSIFICATION_TYPE":"U","NORAD_CAT_ID":62085,"ELEMENT_SET_NO":999,"REV_AT_EPOCH":7642,"BSTAR":0.00019237,"MEAN_MOTION_DOT":1.343e-5,"MEAN_MOTION_DDOT":0},{"OBJECT_NAME":"KINEIS-2C","OBJECT_ID":"2025-028B","EPOCH":"2026-04-26T16:55:09.640416","MEAN_MOTION":14.72957967,"ECCENTRICITY":0.0002365,"INCLINATION":98.0489,"RA_OF_ASC_NODE":171.2888,"ARG_OF_PERICENTER":115.6509,"MEAN_ANOMALY":244.4944,"EPHEMERIS_TYPE":0,"CLASSIFICATION_TYPE":"U","NORAD_CAT_ID":62929,"ELEMENT_SET_NO":999,"REV_AT_EPOCH":6503,"BSTAR":0.00021727,"MEAN_MOTION_DOT":1.344e-5,"MEAN_MOTION_DDOT":0},{"OBJECT_NAME":"KINEIS-2D","OBJECT_ID":"2025-028C","EPOCH":"2026-04-26T17:16:43.563360","MEAN_MOTION":14.75518347,"ECCENTRICITY":0.0003645,"INCLINATION":97.9325,"RA_OF_ASC_NODE":170.1535,"ARG_OF_PERICENTER":36.5476,"MEAN_ANOMALY":323.5981,"EPHEMERIS_TYPE":0,"CLASSIFICATION_TYPE":"U","NORAD_CAT_ID":62930,"ELEMENT_SET_NO":999,"REV_AT_EPOCH":6512,"BSTAR":0.00027347,"MEAN_MOTION_DOT":1.812e-5,"MEAN_MOTION_DDOT":0},{"OBJECT_NAME":"KINEIS-2E","OBJECT_ID":"2025-028D","EPOCH":"2026-04-26T14:24:34.108128","MEAN_MOTION":14.76865043,"ECCENTRICITY":0.0001367,"INCLINATION":97.8994,"RA_OF_ASC_NODE":169.3274,"ARG_OF_PERICENTER":79.573,"MEAN_ANOMALY":280.5635,"EPHEMERIS_TYPE":0,"CLASSIFICATION_TYPE":"U","NORAD_CAT_ID":62931,"ELEMENT_SET_NO":999,"REV_AT_EPOCH":6516,"BSTAR":0.00022846,"MEAN_MOTION_DOT":1.555e-5,"MEAN_MOTION_DDOT":0},{"OBJECT_NAME":"KINEIS-2A","OBJECT_ID":"2025-028E","EPOCH":"2026-04-26T17:47:02.402592","MEAN_MOTION":14.72226586,"ECCENTRICITY":0.00018,"INCLINATION":98.1189,"RA_OF_ASC_NODE":172.0595,"ARG_OF_PERICENTER":326.0738,"MEAN_ANOMALY":34.0353,"EPHEMERIS_TYPE":0,"CLASSIFICATION_TYPE":"U","NORAD_CAT_ID":62932,"ELEMENT_SET_NO":999,"REV_AT_EPOCH":6503,"BSTAR":0.00023704,"MEAN_MOTION_DOT":1.445e-5,"MEAN_MOTION_DDOT":0},{"OBJECT_NAME":"KINEIS-2B","OBJECT_ID":"2025-028G","EPOCH":"2026-04-26T17:28:56.015904","MEAN_MOTION":14.73250944,"ECCENTRICITY":0.0002477,"INCLINATION":97.9707,"RA_OF_ASC_NODE":170.5192,"ARG_OF_PERICENTER":339.1539,"MEAN_ANOMALY":20.9568,"EPHEMERIS_TYPE":0,"CLASSIFICATION_TYPE":"U","NORAD_CAT_ID":62934,"ELEMENT_SET_NO":999,"REV_AT_EPOCH":6508,"BSTAR":0.00022617,"MEAN_MOTION_DOT":1.412e-5,"MEAN_MOTION_DDOT":0},{"OBJECT_NAME":"KINEIS-4E","OBJECT_ID":"2025-056A","EPOCH":"2026-04-26T14:23:18.762144","MEAN_MOTION":14.72373088,"ECCENTRICITY":6.439e-5,"INCLINATION":97.9189,"RA_OF_ASC_NODE":241.9194,"ARG_OF_PERICENTER":71.0099,"MEAN_ANOMALY":289.1179,"EPHEMERIS_TYPE":0,"CLASSIFICATION_TYPE":"U","NORAD_CAT_ID":63300,"ELEMENT_SET_NO":999,"REV_AT_EPOCH":5953,"BSTAR":0.000211669,"MEAN_MOTION_DOT":1.292e-5,"MEAN_MOTION_DDOT":0},{"OBJECT_NAME":"KINEIS-4C","OBJECT_ID":"2025-056B","EPOCH":"2026-04-26T11:24:32.783616","MEAN_MOTION":14.72372411,"ECCENTRICITY":0.00045124,"INCLINATION":97.9234,"RA_OF_ASC_NODE":241.9971,"ARG_OF_PERICENTER":112.0424,"MEAN_ANOMALY":248.1263,"EPHEMERIS_TYPE":0,"CLASSIFICATION_TYPE":"U","NORAD_CAT_ID":63301,"ELEMENT_SET_NO":999,"REV_AT_EPOCH":5952,"BSTAR":4.7613913e-5,"MEAN_MOTION_DOT":2.53e-6,"MEAN_MOTION_DDOT":0},{"OBJECT_NAME":"KINEIS-4D","OBJECT_ID":"2025-056C","EPOCH":"2026-04-26T14:47:18.613824","MEAN_MOTION":14.72342253,"ECCENTRICITY":0.00036329,"INCLINATION":97.9337,"RA_OF_ASC_NODE":242.1288,"ARG_OF_PERICENTER":116.7642,"MEAN_ANOMALY":243.3937,"EPHEMERIS_TYPE":0,"CLASSIFICATION_TYPE":"U","NORAD_CAT_ID":63302,"ELEMENT_SET_NO":999,"REV_AT_EPOCH":5954,"BSTAR":9.070715e-5,"MEAN_MOTION_DOT":5.25e-6,"MEAN_MOTION_DDOT":0},{"OBJECT_NAME":"KINEIS-4A","OBJECT_ID":"2025-056D","EPOCH":"2026-04-26T13:57:37.075968","MEAN_MOTION":14.7226026,"ECCENTRICITY":0.00031319,"INCLINATION":97.9232,"RA_OF_ASC_NODE":242.0116,"ARG_OF_PERICENTER":101.1526,"MEAN_ANOMALY":259.0034,"EPHEMERIS_TYPE":0,"CLASSIFICATION_TYPE":"U","NORAD_CAT_ID":63303,"ELEMENT_SET_NO":999,"REV_AT_EPOCH":5953,"BSTAR":0.00067148384,"MEAN_MOTION_DOT":4.193e-5,"MEAN_MOTION_DDOT":0},{"OBJECT_NAME":"KINEIS-4B","OBJECT_ID":"2025-056E","EPOCH":"2026-04-24T22:24:30.369312","MEAN_MOTION":14.72278046,"ECCENTRICITY":0.00068466,"INCLINATION":97.9285,"RA_OF_ASC_NODE":240.4487,"ARG_OF_PERICENTER":96.2822,"MEAN_ANOMALY":263.9165,"EPHEMERIS_TYPE":0,"CLASSIFICATION_TYPE":"U","NORAD_CAT_ID":63304,"ELEMENT_SET_NO":999,"REV_AT_EPOCH":5928,"BSTAR":1.0088328e-5,"MEAN_MOTION_DOT":1.5e-7,"MEAN_MOTION_DDOT":0}]
